[{"OBJECT_NAME":"MESON-1","OBJECT_ID":"2024-043AK","EPOCH":"2026-03-09T21:36:16.481664","MEAN_MOTION":15.29893494,"ECCENTRICITY":0.00095452,"INCLINATION":97.5469,"RA_OF_ASC_NODE":205.2839,"ARG_OF_PERICENTER":227.1432,"MEAN_ANOMALY":132.9007,"EPHEMERIS_TYPE":0,"CLASSIFICATION_TYPE":"U","NORAD_CAT_ID":59131,"ELEMENT_SET_NO":999,"REV_AT_EPOCH":11189,"BSTAR":0.0002974823,"MEAN_MOTION_DOT":8.544e-5,"MEAN_MOTION_DDOT":0},{"OBJECT_NAME":"STARLINK-31338","OBJECT_ID":"2024-044E","EPOCH":"2026-03-09T08:47:28.013280","MEAN_MOTION":15.27570232,"ECCENTRICITY":8.643e-5,"INCLINATION":43.002,"RA_OF_ASC_NODE":112.5114,"ARG_OF_PERICENTER":257.0767,"MEAN_ANOMALY":102.9988,"EPHEMERIS_TYPE":0,"CLASSIFICATION_TYPE":"U","NORAD_CAT_ID":59156,"ELEMENT_SET_NO":999,"REV_AT_EPOCH":11347,"BSTAR":-6.45568e-6,"MEAN_MOTION_DOT":-4.39e-6,"MEAN_MOTION_DDOT":0}]
